start=new Date('2022-07-01T00:00:00.000Z').valueOf();
sats=[{"TLE_LINE1":"1 45752U 20038Y   22181.32813562  .00049533  00000-0  25658-3 0  9993","DECAY_DATE":null,"OBJECT_ID":"2020-038Y","APOAPSIS":"336.767","PERIOD":"91.112","ELEMENT_SET_NO":"999","INCLINATION":"52.9918","EPOCH":"2022-06-30T07:52:30.917568","MEAN_MOTION_DOT":"0.00049533","COUNTRY_CODE":"US","BSTAR":"0.00025658000000","MEAN_ELEMENT_THEORY":"SGP4","OBJECT_NAME":"STARLINK-1469","EPHEMERIS_TYPE":"0","TIME_SYSTEM":"UTC","GP_ID":"207145554","PERIAPSIS":"321.417","ARG_OF_PERICENTER":"9.8407","REV_AT_EPOCH":"11767","LAUNCH_DATE":"2020-06-13","CLASSIFICATION_TYPE":"U","TLE_LINE2":"2 45752  52.9918 190.0820 0011443   9.8407 350.2835 15.80477310117674","MEAN_MOTION":"15.80477310","RA_OF_ASC_NODE":"190.0820","ECCENTRICITY":"0.00114430","FILE":"3505769","REF_FRAME":"TEME","MEAN_ANOMALY":"350.2835","CENTER_NAME":"EARTH","NORAD_CAT_ID":"45752","RCS_SIZE":"LARGE","SITE":"AFETR","SEMIMAJOR_AXIS":"6707.227","OBJECT_TYPE":"PAYLOAD","MEAN_MOTION_DDOT":"0.0000000000000"},{"OBJECT_TYPE":"PAYLOAD","SEMIMAJOR_AXIS":"6925.378","SITE":"AFETR","RCS_SIZE":"LARGE","NORAD_CAT_ID":"45753","MEAN_MOTION_DDOT":"0.0000000000000","MEAN_MOTION":"15.06390239","TLE_LINE2":"2 45753  53.0528 147.2110 0002128  68.0155 292.1060 15.06390239113332","RA_OF_ASC_NODE":"147.2110","LAUNCH_DATE":"2020-06-13","CLASSIFICATION_TYPE":"U","ARG_OF_PERICENTER":"68.0155","REV_AT_EPOCH":"11333","MEAN_ANOMALY":"292.1060","CENTER_NAME":"EARTH","FILE":"3505946","REF_FRAME":"TEME","ECCENTRICITY":"0.00021280","MEAN_MOTION_DOT":"-0.00000778","PERIAPSIS":"545.770","EPHEMERIS_TYPE":"0","TIME_SYSTEM":"UTC","OBJECT_NAME":"STARLINK-1476","GP_ID":"207174085","BSTAR":"-0.00003331100000","MEAN_ELEMENT_THEORY":"SGP4","COUNTRY_CODE":"US","OBJECT_ID":"2020-038Z","APOAPSIS":"548.717","PERIOD":"95.593","TLE_LINE1":"1 45753U 20038Z   22181.87213977 -.00000778  00000-0 -33311-4 0  9994","DECAY_DATE":null,"EPOCH":"2022-06-30T20:55:52.876128","INCLINATION":"53.0528","ELEMENT_SET_NO":"999"},{"NORAD_CAT_ID":"45754","SITE":"AFETR","RCS_SIZE":"LARGE","SEMIMAJOR_AXIS":"6925.384","OBJECT_TYPE":"PAYLOAD","MEAN_MOTION_DDOT":"0.0000000000000","ARG_OF_PERICENTER":"76.0566","REV_AT_EPOCH":"11333","LAUNCH_DATE":"2020-06-13","CLASSIFICATION_TYPE":"U","TLE_LINE2":"2 45754  53.0538 147.1889 0001584  76.0566 284.0599 15.06388347113330","MEAN_MOTION":"15.06388347","RA_OF_ASC_NODE":"147.1889","ECCENTRICITY":"0.00015840","FILE":"3505946","REF_FRAME":"TEME","MEAN_ANOMALY":"284.0599","CENTER_NAME":"EARTH","MEAN_MOTION_DOT":"-0.00000892","COUNTRY_CODE":"US","BSTAR":"-0.00004098800000","MEAN_ELEMENT_THEORY":"SGP4","EPHEMERIS_TYPE":"0","OBJECT_NAME":"STARLINK-1477","TIME_SYSTEM":"UTC","GP_ID":"207174335","PERIAPSIS":"546.152","TLE_LINE1":"1 45754U 20038AA  22181.87582513 -.00000892  00000-0 -40988-4 0  9995","DECAY_DATE":null,"APOAPSIS":"548.346","OBJECT_ID":"2020-038AA","PERIOD":"95.593","ELEMENT_SET_NO":"999","INCLINATION":"53.0538","EPOCH":"2022-06-30T21:01:11.291232"},{"ELEMENT_SET_NO":"999","EPOCH":"2022-06-30T21:27:42.634944","INCLINATION":"53.0526","APOAPSIS":"548.339","OBJECT_ID":"2020-038AB","PERIOD":"95.592","TLE_LINE1":"1 45755U 20038AB  22181.89424346  .00000894  00000-0  78911-4 0  9994","DECAY_DATE":null,"BSTAR":"0.00007891100000","MEAN_ELEMENT_THEORY":"SGP4","COUNTRY_CODE":"US","PERIAPSIS":"546.072","EPHEMERIS_TYPE":"0","OBJECT_NAME":"STARLINK-1478","TIME_SYSTEM":"UTC","GP_ID":"207175087","MEAN_MOTION_DOT":"0.00000894","ECCENTRICITY":"0.00016370","MEAN_ANOMALY":"297.8890","CENTER_NAME":"EARTH","FILE":"3505946","REF_FRAME":"TEME","ARG_OF_PERICENTER":"62.2265","REV_AT_EPOCH":"11332","TLE_LINE2":"2 45755  53.0526 147.1116 0001637  62.2265 297.8890 15.06402528113326","MEAN_MOTION":"15.06402528","RA_OF_ASC_NODE":"147.1116","CLASSIFICATION_TYPE":"U","LAUNCH_DATE":"2020-06-13","MEAN_MOTION_DDOT":"0.0000000000000","SITE":"AFETR","RCS_SIZE":"LARGE","NORAD_CAT_ID":"45755","OBJECT_TYPE":"PAYLOAD","SEMIMAJOR_AXIS":"6925.341"},{"TLE_LINE1":"1 45756U 20038AC  22181.88961945  .00000880  00000-0  77975-4 0  9999","DECAY_DATE":null,"APOAPSIS":"548.395","OBJECT_ID":"2020-038AC","PERIOD":"95.593","ELEMENT_SET_NO":"999","INCLINATION":"53.0546","EPOCH":"2022-06-30T21:21:03.120480","MEAN_MOTION_DOT":"0.00000880","COUNTRY_CODE":"US","BSTAR":"0.00007797500000","MEAN_ELEMENT_THEORY":"SGP4","EPHEMERIS_TYPE":"0","OBJECT_NAME":"STARLINK-1484","TIME_SYSTEM":"UTC","GP_ID":"207174836","PERIAPSIS":"546.072","ARG_OF_PERICENTER":"60.6791","REV_AT_EPOCH":"11332","CLASSIFICATION_TYPE":"U","LAUNCH_DATE":"2020-06-13","MEAN_MOTION":"15.06393403","TLE_LINE2":"2 45756  53.0546 147.1216 0001677  60.6791 299.4365 15.06393403113326","RA_OF_ASC_NODE":"147.1216","ECCENTRICITY":"0.00016770","FILE":"3505946","REF_FRAME":"TEME","MEAN_ANOMALY":"299.4365","CENTER_NAME":"EARTH","NORAD_CAT_ID":"45756","SITE":"AFETR","RCS_SIZE":"LARGE","SEMIMAJOR_AXIS":"6925.369","OBJECT_TYPE":"PAYLOAD","MEAN_MOTION_DDOT":"0.0000000000000"},{"TLE_LINE1":"1 45757U 20038AD  22181.90900153  .00000982  00000-0  84841-4 0  9990","DECAY_DATE":null,"APOAPSIS":"548.715","OBJECT_ID":"2020-038AD","PERIOD":"95.593","INCLINATION":"53.0544","EPOCH":"2022-06-30T21:48:57.732192","ELEMENT_SET_NO":"999","MEAN_MOTION_DOT":"0.00000982","EPHEMERIS_TYPE":"0","TIME_SYSTEM":"UTC","OBJECT_NAME":"STARLINK-1486","GP_ID":"207173586","PERIAPSIS":"545.754","COUNTRY_CODE":"US","BSTAR":"0.00008484100000","MEAN_ELEMENT_THEORY":"SGP4","LAUNCH_DATE":"2020-06-13","CLASSIFICATION_TYPE":"U","MEAN_MOTION":"15.06393170","TLE_LINE2":"2 45757  53.0544 147.0454 0002138  58.0494 302.0703 15.06393170113320","RA_OF_ASC_NODE":"147.0454","ARG_OF_PERICENTER":"58.0494","REV_AT_EPOCH":"11332","FILE":"3505946","REF_FRAME":"TEME","CENTER_NAME":"EARTH","MEAN_ANOMALY":"302.0703","ECCENTRICITY":"0.00021380","SEMIMAJOR_AXIS":"6925.369","OBJECT_TYPE":"PAYLOAD","NORAD_CAT_ID":"45757","SITE":"AFETR","RCS_SIZE":"LARGE","MEAN_MOTION_DDOT":"0.0000000000000"},{"TLE_LINE1":"1 45758U 20038AE  22181.63623456  .00001065  00000-0  90397-4 0  9995","DECAY_DATE":null,"OBJECT_ID":"2020-038AE","APOAPSIS":"548.646","PERIOD":"95.592","ELEMENT_SET_NO":"999","INCLINATION":"53.0543","EPOCH":"2022-06-30T15:16:10.665984","MEAN_MOTION_DOT":"0.00001065","COUNTRY_CODE":"US","BSTAR":"0.00009039700000","MEAN_ELEMENT_THEORY":"SGP4","EPHEMERIS_TYPE":"0","OBJECT_NAME":"STARLINK-1487","TIME_SYSTEM":"UTC","GP_ID":"207173836","PERIAPSIS":"545.787","ARG_OF_PERICENTER":"60.6028","REV_AT_EPOCH":"11328","LAUNCH_DATE":"2020-06-13","CLASSIFICATION_TYPE":"U","TLE_LINE2":"2 45758  53.0543 148.2634 0002064  60.6028 299.5166 15.06399008113287","MEAN_MOTION":"15.06399008","RA_OF_ASC_NODE":"148.2634","ECCENTRICITY":"0.00020640","FILE":"3505946","REF_FRAME":"TEME","MEAN_ANOMALY":"299.5166","CENTER_NAME":"EARTH","NORAD_CAT_ID":"45758","SITE":"AFETR","RCS_SIZE":"LARGE","SEMIMAJOR_AXIS":"6925.352","OBJECT_TYPE":"PAYLOAD","MEAN_MOTION_DDOT":"0.0000000000000"},{"OBJECT_ID":"2020-038AF","APOAPSIS":"548.728","PERIOD":"95.592","TLE_LINE1":"1 45759U 20038AF  22181.61781115 -.00000695  00000-0 -27775-4 0  9991","DECAY_DATE":null,"EPOCH":"2022-06-30T14:49:38.883360","INCLINATION":"53.0558","ELEMENT_SET_NO":"999","MEAN_MOTION_DOT":"-0.00000695","PERIAPSIS":"545.700","EPHEMERIS_TYPE":"0","OBJECT_NAME":"STARLINK-1493","TIME_SYSTEM":"UTC","GP_ID":"207174588","BSTAR":"-0.00002777500000","MEAN_ELEMENT_THEORY":"SGP4","COUNTRY_CODE":"US","TLE_LINE2":"2 45759  53.0558 148.3505 0002186  52.0997 308.0190 15.06399834113287","MEAN_MOTION":"15.06399834","RA_OF_ASC_NODE":"148.3505","LAUNCH_DATE":"2020-06-13","CLASSIFICATION_TYPE":"U","ARG_OF_PERICENTER":"52.0997","REV_AT_EPOCH":"11328","MEAN_ANOMALY":"308.0190","CENTER_NAME":"EARTH","FILE":"3505946","REF_FRAME":"TEME","ECCENTRICITY":"0.00021860","OBJECT_TYPE":"PAYLOAD","SEMIMAJOR_AXIS":"6925.349","SITE":"AFETR","RCS_SIZE":"LARGE","NORAD_CAT_ID":"45759","MEAN_MOTION_DDOT":"0.0000000000000"},{"EPOCH":"2022-06-30T21:17:06.882144","INCLINATION":"53.0525","ELEMENT_SET_NO":"999","PERIOD":"95.593","APOAPSIS":"548.674","OBJECT_ID":"2020-038AG","DECAY_DATE":null,"TLE_LINE1":"1 45760U 20038AG  22181.88688521 -.00000945  00000-0 -44558-4 0  9995","PERIAPSIS":"545.824","GP_ID":"207175336","TIME_SYSTEM":"UTC","EPHEMERIS_TYPE":"0","OBJECT_NAME":"STARLINK-1494","MEAN_ELEMENT_THEORY":"SGP4","BSTAR":"-0.00004455800000","COUNTRY_CODE":"US","MEAN_MOTION_DOT":"-0.00000945","CENTER_NAME":"EARTH","MEAN_ANOMALY":"298.6709","REF_FRAME":"TEME","FILE":"3505946","ECCENTRICITY":"0.00020580","RA_OF_ASC_NODE":"147.1477","TLE_LINE2":"2 45760  53.0525 147.1477 0002058  61.4487 298.6709 15.06388360113332","MEAN_MOTION":"15.06388360","CLASSIFICATION_TYPE":"U","LAUNCH_DATE":"2020-06-13","REV_AT_EPOCH":"11333","ARG_OF_PERICENTER":"61.4487","MEAN_MOTION_DDOT":"0.0000000000000","OBJECT_TYPE":"PAYLOAD","SEMIMAJOR_AXIS":"6925.384","RCS_SIZE":"LARGE","SITE":"AFETR","NORAD_CAT_ID":"45760"},{"CENTER_NAME":"EARTH","MEAN_ANOMALY":"347.0688","FILE":"3505946","REF_FRAME":"TEME","ECCENTRICITY":"0.00032500","TLE_LINE2":"2 45761  53.0470  24.8379 0003250  13.0415 347.0688 15.76749460115058","MEAN_MOTION":"15.76749460","RA_OF_ASC_NODE":"24.8379","CLASSIFICATION_TYPE":"U","LAUNCH_DATE":"2020-06-13","ARG_OF_PERICENTER":"13.0415","REV_AT_EPOCH":"11505","MEAN_MOTION_DDOT":"0.0000000000000","OBJECT_TYPE":"PAYLOAD","SEMIMAJOR_AXIS":"6717.794","SITE":"AFETR","RCS_SIZE":"LARGE","NORAD_CAT_ID":"45761","EPOCH":"2022-06-30T20:08:12.385536","INCLINATION":"53.0470","ELEMENT_SET_NO":"999","OBJECT_ID":"2020-038AH","APOAPSIS":"341.843","PERIOD":"91.327","TLE_LINE1":"1 45761U 20038AH  22181.83903224 -.00000098  00000-0  34227-5 0  9992","DECAY_DATE":null,"PERIAPSIS":"337.476","TIME_SYSTEM":"UTC","EPHEMERIS_TYPE":"0","OBJECT_NAME":"STARLINK-1495","GP_ID":"207174086","BSTAR":"0.00000342270000","MEAN_ELEMENT_THEORY":"SGP4","COUNTRY_CODE":"US","MEAN_MOTION_DOT":"-0.00000098"}];
